OBJECT_NAME,OBJECT_ID,EPOCH,MEAN_MOTION,ECCENTRICITY,INCLINATION,RA_OF_ASC_NODE,ARG_OF_PERICENTER,MEAN_ANOMALY,EPHEMERIS_TYPE,CLASSIFICATION_TYPE,NORAD_CAT_ID,ELEMENT_SET_NO,REV_AT_EPOCH,BSTAR,MEAN_MOTION_DOT,MEAN_MOTION_DDOT
COSMOS 2251 DEB,1993-036AXJ,2024-01-21T01:38:55.317120,14.63075677,.0018392,74.0490,251.7613,157.7173,202.4797,0,U,36047,999,55721,.22726E-2,.11688E-3,0
COSMOS 2251 DEB,1993-036AXK,2024-01-21T16:28:33.155904,14.35806414,.002801,74.0577,128.2097,351.6043,77.7816,0,U,36048,999,75576,.48589E-3,.1387E-4,0
COSMOS 2251 DEB,1993-036AXL,2024-01-21T07:43:20.736192,14.50468320,.0018872,74.0379,351.4144,248.2037,111.7116,0,U,36049,999,75298,.20868E-2,.8163E-4,0
COSMOS 2251 DEB,1993-036AXM,2024-01-18T01:06:48.409632,14.85803900,.0114275,74.0353,152.0274,56.3490,304.8526,0,U,36050,999,56664,.7222E-3,.704E-4,0
COSMOS 2251 DEB,1993-036AXS,2024-01-20T15:22:59.864160,14.30806833,.0191527,74.0442,14.7911,274.3866,83.5424,0,U,36055,999,72847,.14448E-1,.46543E-3,0
COSMOS 2251 DEB,1993-036AXV,2024-01-20T00:28:36.907968,14.51942997,.0053353,74.0227,266.9179,210.4237,149.3826,0,U,36058,999,56032,.81881E-3,.3338E-4,0
COSMOS 2251 DEB,1993-036AXW,2023-12-27T15:11:49.138368,14.62214035,.0043743,74.0004,111.8107,1.1346,358.9912,0,U,36059,999,51530,.49277E-2,.25231E-3,0
COSMOS 2251 DEB,1993-036AYB,2024-01-18T03:57:55.424448,14.57513946,.0050721,73.8391,292.8148,331.2016,28.6348,0,U,36064,999,75525,.4233E-2,.19613E-3,0
COSMOS 2251 DEB,1993-036AYJ,2024-01-21T11:43:21.722304,14.65911132,.0023885,74.0273,315.6262,186.9599,173.1242,0,U,36071,999,54712,.51174E-2,.28193E-3,0
COSMOS 2251 DEB,1993-036AYL,2024-01-21T08:04:49.885536,14.33308372,.002514,74.0318,148.4468,24.3891,335.8444,0,U,36073,999,60295,.44638E-3,.1208E-4,0
COSMOS 2251 DEB,1993-036AYM,2024-01-20T09:59:06.730368,14.35311638,.0051082,73.9940,182.8361,75.8959,284.7863,0,U,36074,999,75945,.1927E-2,.5583E-4,0
COSMOS 2251 DEB,1993-036AYQ,2024-01-11T23:07:14.385216,15.22678447,.0038956,73.9697,120.4512,75.8716,284.6806,0,U,36077,999,50633,.41138E-2,.99136E-3,0
COSMOS 2251 DEB,1993-036AYV,2024-01-18T23:50:00.721824,14.29490382,.0123355,74.1667,229.7038,290.5121,68.2825,0,U,36368,999,50532,.48477E-2,.13442E-3,0
COSMOS 2251 DEB,1993-036AYW,2024-01-14T13:31:18.503904,14.54917304,.0025125,74.0413,331.8757,236.4005,123.4760,0,U,36369,999,75704,.3289E-2,.14201E-3,0
COSMOS 2251 DEB,1993-036AYZ,2024-01-19T10:21:42.969312,14.65569811,.0038663,74.0035,41.0016,272.8460,86.8283,0,U,36372,999,55589,.62435E-2,.34405E-3,0
COSMOS 2251 DEB,1993-036AZG,2024-01-08T02:40:56.253216,14.33848541,.0046864,74.0125,160.2920,96.4981,25.1426,0,U,36379,999,54720,.34102E-3,.935E-5,0
COSMOS 2251 DEB,1993-036AZN,2024-01-21T11:04:31.554048,14.50006279,.0195035,73.9828,42.4448,19.3503,341.4928,0,U,36385,999,75003,.23639E-2,.11684E-3,0
COSMOS 2251 DEB,1993-036AZQ,2024-01-14T13:33:30.597408,14.59559553,.0047691,73.9819,96.1683,353.1602,6.8906,0,U,36387,999,55724,.64208E-2,.31119E-3,0
COSMOS 2251 DEB,1993-036AZS,2024-01-15T23:03:36.919872,14.48676331,.0079313,73.8398,122.7047,199.2053,160.6113,0,U,36419,999,75812,.81922E-2,.32235E-3,0
