0 COSMOS 2251 DEB
1 36047U 93036AXJ 24021.06869580  .00011688  00000-0  22726-2 0  9997
2 36047  74.0490 251.7613 0018392 157.7173 202.4797 14.63075677557212
0 COSMOS 2251 DEB
1 36048U 93036AXK 24021.68649486  .00001387  00000-0  48589-3 0  9998
2 36048  74.0577 128.2097 0028010 351.6043  77.7816 14.35806414755767
0 COSMOS 2251 DEB
1 36049U 93036AXL 24021.32176778  .00008163  00000-0  20868-2 0  9997
2 36049  74.0379 351.4144 0018872 248.2037 111.7116 14.50468320752980
0 COSMOS 2251 DEB
1 36050U 93036AXM 24018.04639363  .00007040  00000-0  72220-3 0  9991
2 36050  74.0353 152.0274 0114275  56.3490 304.8526 14.85803900566649
0 COSMOS 2251 DEB
1 36055U 93036AXS 24020.64097065  .00046543  00000-0  14448-1 0  9999
2 36055  74.0442  14.7911 0191527 274.3866  83.5424 14.30806833728476
0 COSMOS 2251 DEB
1 36058U 93036AXV 24020.01987162  .00003338  00000-0  81881-3 0  9991
2 36058  74.0227 266.9179 0053353 210.4237 149.3826 14.51942997560324
0 COSMOS 2251 DEB
1 36059U 93036AXW 23361.63320762  .00025231  00000-0  49277-2 0  9992
2 36059  74.0004 111.8107 0043743   1.1346 358.9912 14.62214035515304
0 COSMOS 2251 DEB
1 36064U 93036AYB 24018.16522482  .00019613  00000-0  42330-2 0  9999
2 36064  73.8391 292.8148 0050721 331.2016  28.6348 14.57513946755257
0 COSMOS 2251 DEB
1 36071U 93036AYJ 24021.48844586  .00028193  00000-0  51174-2 0  9997
2 36071  74.0273 315.6262 0023885 186.9599 173.1242 14.65911132547122
0 COSMOS 2251 DEB
1 36073U 93036AYL 24021.33668849  .00001208  00000-0  44638-3 0  9995
2 36073  74.0318 148.4468 0025140  24.3891 335.8444 14.33308372602955
0 COSMOS 2251 DEB
1 36074U 93036AYM 24020.41605012  .00005583  00000-0  19270-2 0  9990
2 36074  73.9940 182.8361 0051082  75.8959 284.7863 14.35311638759455
0 COSMOS 2251 DEB
1 36077U 93036AYQ 24011.96336094  .00099136  00000-0  41138-2 0  9999
2 36077  73.9697 120.4512 0038956  75.8716 284.6806 15.22678447506333
0 COSMOS 2251 DEB
1 36368U 93036AYV 24018.99306391  .00013442  00000-0  48477-2 0  9998
2 36368  74.1667 229.7038 0123355 290.5121  68.2825 14.29490382505327
0 COSMOS 2251 DEB
1 36369U 93036AYW 24014.56340861  .00014201  00000-0  32890-2 0  9994
2 36369  74.0413 331.8757 0025125 236.4005 123.4760 14.54917304757041
0 COSMOS 2251 DEB
1 36372U 93036AYZ 24019.43174733  .00034405  00000-0  62435-2 0  9998
2 36372  74.0035  41.0016 0038663 272.8460  86.8283 14.65569811555892
0 COSMOS 2251 DEB
1 36379U 93036AZG 24008.11176219  .00000935  00000-0  34102-3 0  9991
2 36379  74.0125 160.2920 0046864  96.4981  25.1426 14.33848541547203
0 COSMOS 2251 DEB
1 36385U 93036AZN 24021.46147632  .00011684  00000-0  23639-2 0  9993
2 36385  73.9828  42.4448 0195035  19.3503 341.4928 14.50006279750034
0 COSMOS 2251 DEB
1 36387U 93036AZQ 24014.56493747  .00031119  00000-0  64208-2 0  9991
2 36387  73.9819  96.1683 0047691 353.1602   6.8906 14.59559553557249
0 COSMOS 2251 DEB
1 36419U 93036AZS 24015.96084398  .00032235  00000-0  81922-2 0  9992
2 36419  73.8398 122.7047 0079313 199.2053 160.6113 14.48676331758122
